NORAD_CAT_ID,OBJECT_NAME,OBJECT_TYPE,EPOCH,MEAN_MOTION,ECCENTRICITY,INCLINATION,RA_OF_ASC_NODE,ARG_OF_PERICENTER,MEAN_ANOMALY,BSTAR,MEAN_MOTION_DOT,MEAN_MOTION_DDOT,TLE_LINE0,TLE_LINE1,TLE_LINE2,SEMIMAJOR_AXIS,PERIOD,APOGEE,PERIGEE,DECAYED
51878.0,STARLINK-3575,PAYLOAD,2022-05-09 14:00:01,15.41618343,0.0001484,53.2176,176.7699,43.4981,314.7412,-0.01813,-0.00716588,0.0,0 STARLINK-3575,1 51878U 22022AC  22129.58335648 -.00716588  00000-0 -18130-1 0  9996,2 51878  53.2176 176.7699 0001484  43.4981 314.7412 15.41618343  3669,6819.47,93.408,442.347,440.323,0.0
51878.0,STARLINK-3575,PAYLOAD,2022-05-09 22:00:00,15.41108831,0.0001653,53.2176,175.1974,33.6463,15.2,-0.018475,-0.00717799,0.0,0 STARLINK-3575,1 51878U 22022AC  22129.91667824 -.00717799  00000-0 -18475-1 0  9994,2 51878  53.2176 175.1974 0001653  33.6463  15.2000 15.41108831  3664,6820.973000000001,93.439,443.965,441.71,0.0
51878.0,STARLINK-3575,PAYLOAD,2022-05-10 06:00:00,15.40600622,0.0001922,53.2177,173.6285,30.5393,68.3633,-0.018872,-0.00720702,0.0,0 STARLINK-3575,1 51878U 22022AC  22130.25001157 -.00720702  00000-0 -18872-1 0  9993,2 51878  53.2177 173.6285 0001922  30.5393  68.3633 15.40600622 11800,6822.473000000001,93.47,445.649,443.026,0.0
51878.0,STARLINK-3575,PAYLOAD,2022-05-10 14:00:01,15.40085883,0.0001728,53.2174,172.0614,40.385,107.9629,-0.018955,-0.00712226,0.0,0 STARLINK-3575,1 51878U 22022AC  22130.58334491 -.00712226  00000-0 -18955-1 0  9993,2 51878  53.2174 172.0614 0001728  40.3850 107.9629 15.40085883  3663,6823.993,93.501,447.037,444.67800000000005,0.0
51878.0,STARLINK-3575,PAYLOAD,2022-05-10 18:00:00,15.39828568,0.0001784,53.2172,171.2757,30.8583,321.9846,-0.019058,-0.00710181,0.0,0 STARLINK-3575,1 51878U 22022AC  22130.75001157 -.00710181  00000-0 -19058-1 0  9995,2 51878  53.2172 171.2757 0001784  30.8583 321.9846 15.39828568  3649,6824.753000000002,93.517,447.835,445.4,0.0
51878.0,STARLINK-3575,PAYLOAD,2022-05-11 22:00:00,15.38048025,0.0001506999999999,53.2175,165.7985,41.2804,298.718,-0.020377,-0.00715591,0.0,0 STARLINK-3575,1 51878U 22022AC  22131.91667824 -.00715591  00000-0 -20377-1 0  9999,2 51878  53.2175 165.7985 0001507  41.2804 298.7180 15.38048025 12067,6830.019,93.625,452.913,450.855,0.0
51878.0,STARLINK-3575,PAYLOAD,2022-05-12 14:00:01,15.37028822,0.0001498,53.2172,162.6772,42.9124,29.2325,-0.021081,-0.0071605,0.0,0 STARLINK-3575,1 51878U 22022AC  22132.58334491 -.00716050  00000-0 -21081-1 0  9998,2 51878  53.2172 162.6772 0001498  42.9124  29.2325 15.37028822  1301,6833.038000000001,93.687,455.927,453.879,0.0
51878.0,STARLINK-3575,PAYLOAD,2022-05-12 20:00:01,15.36647796,0.0001575,53.2176,161.5056,37.806,338.2634,-0.021451,-0.00719393,0.0,0 STARLINK-3575,1 51878U 22022AC  22132.83334491 -.00719393  00000-0 -21451-1 0  9990,2 51878  53.2176 161.5056 0001575  37.8060 338.2634 15.36647796 12209,6834.167,93.71,457.109,454.956,0.0
51878.0,STARLINK-3575,PAYLOAD,2022-05-12 22:00:00,15.36518454,0.0001714,53.2174,161.1155,37.3248,79.9766,-0.021435,-0.00716132,0.0,0 STARLINK-3575,1 51878U 22022AC  22132.91667824 -.00716132  00000-0 -21435-1 0  9998,2 51878  53.2174 161.1155 0001714  37.3248  79.9766 15.36518454  1303,6834.551,93.718,457.587,455.245,0.0
51878.0,STARLINK-3575,PAYLOAD,2022-05-13 14:00:01,15.3549941,0.0001635,53.2172,158.0013,47.8442,157.9272,-0.022184,-0.00717057,0.0,0 STARLINK-3575,1 51878U 22022AC  22133.58334491 -.00717057  00000-0 -22184-1 0  9992,2 51878  53.2172 158.0013 0001635  47.8442 157.9272 15.35499410  1301,6837.575,93.781,460.557,458.322,0.0
51878.0,STARLINK-3575,PAYLOAD,2022-05-13 22:00:00,15.34988316,0.0001498,53.2174,156.4431,53.3715,195.7181,-0.022489,-0.00715196,0.0,0 STARLINK-3575,1 51878U 22022AC  22133.91667824 -.00715196  00000-0 -22489-1 0  9998,2 51878  53.2174 156.4431 0001498  53.3715 195.7181 15.34988316 12376,6839.092,93.812,461.982,459.9330000000001,0.0
51878.0,STARLINK-3575,PAYLOAD,2022-05-14 14:00:01,15.33970777,0.0001423,53.2173,153.3362,48.5537,285.3285,-0.023352,-0.00718565,0.0,0 STARLINK-3575,1 51878U 22022AC  22134.58334491 -.00718565  00000-0 -23352-1 0  9996,2 51878  53.2173 153.3362 0001423  48.5537 285.3285 15.33970777  1303,6842.116,93.874,464.955,463.008,0.0
51878.0,STARLINK-3575,PAYLOAD,2022-05-14 22:00:00,15.33457697,0.0001584,53.2173,151.7819,36.972,338.391,-0.023587,-0.00714397,0.0,0 STARLINK-3575,1 51878U 22022AC  22134.91667824 -.00714397  00000-0 -23587-1 0  9991,2 51878  53.2173 151.7819 0001584  36.9720 338.3910 15.33457697 12526,6843.642,93.905,466.591,464.423,0.0
51878.0,STARLINK-3575,PAYLOAD,2022-05-15 14:00:01,15.32439259,0.0001636999999999,53.2172,148.6821,40.7155,55.8276,-0.024419,-0.00715988,0.0,0 STARLINK-3575,1 51878U 22022AC  22135.58335648 -.00715988  00000-0 -24419-1 0  9993,2 51878  53.2172 148.6821 0001637  40.7155  55.8276 15.32439259  1300,6846.674,93.968,469.66,467.418,0.0
51878.0,STARLINK-3575,PAYLOAD,2022-05-15 22:00:00,15.31930031,0.0001949,53.2173,147.1315,32.6082,103.5119,-0.0249,-0.00718318,0.0,0 STARLINK-3575,1 51878U 22022AC  22135.91667824 -.00718318  00000-0 -24900-1 0  9999,2 51878  53.2173 147.1315 0001949  32.6082 103.5119 15.31930031 12681,6848.191,93.999,471.391,468.722,0.0
51878.0,STARLINK-3575,PAYLOAD,2022-05-16 14:00:01,15.30910775,0.0001636999999999,53.2172,144.0388,48.9857,164.5744,-0.025734,-0.0071891,0.0,0 STARLINK-3575,1 51878U 22022AC  22136.58334491 -.00718910  00000-0 -25734-1 0  9998,2 51878  53.2172 144.0388 0001637  48.9857 164.5744 15.30910775  1300,6851.231,94.062,474.217,471.974,0.0
51878.0,STARLINK-3575,PAYLOAD,2022-05-16 22:00:00,15.30399191,0.0001721999999999,53.2173,142.4916,43.9935,207.3698,-0.026053,-0.00716495,0.0,0 STARLINK-3575,1 51878U 22022AC  22136.91667824 -.00716495  00000-0 -26053-1 0  9995,2 51878  53.2173 142.4916 0001722  43.9935 207.3698 15.30399191  1304,6852.757,94.093,475.802,473.442,0.0
51878.0,STARLINK-3575,PAYLOAD,2022-05-17 06:00:00,15.29888675,0.0001905,53.2174,140.9493,35.8934,252.6577,-0.026421,-0.00715284,0.0,0 STARLINK-3575,1 51878U 22022AC  22137.25001157 -.00715284  00000-0 -26421-1 0  9998,2 51878  53.2174 140.9493 0001905  35.8934 252.6577 15.29888675 12882,6854.281999999997,94.124,477.453,474.841,0.0
51878.0,STARLINK-3575,PAYLOAD,2022-05-17 14:00:01,15.29381881,0.0001649,53.2173,139.4061,40.1949,284.9948,-0.027056,-0.00728946,0.0,0 STARLINK-3575,1 51878U 22022AC  22137.58335648 -.00728946  00000-0 -27056-1 0  9993,2 51878  53.2173 139.4061 0001649  40.1949 284.9948 15.29381881  1307,6855.795999999999,94.156,478.791,476.53,0.0
51878.0,STARLINK-3575,PAYLOAD,2022-05-17 22:00:01,15.28867649,0.0001619,53.2173,137.8629,39.6273,321.5281,-0.027212,-0.00713833,0.0,0 STARLINK-3575,1 51878U 22022AC  22137.91668981 -.00713833  00000-0 -27212-1 0  9992,2 51878  53.2173 137.8629 0001619  39.6273 321.5281 15.28867649  1307,6857.333000000001,94.187,480.3080000000001,478.088,0.0
51878.0,STARLINK-3575,PAYLOAD,2022-05-18 06:00:00,15.28360701,0.0002094,53.2175,136.3242,27.3437,9.096,-0.02783,-0.00726752,0.0,0 STARLINK-3575,1 51878U 22022AC  22138.25001157 -.00726752  00000-0 -27830-1 0  9996,2 51878  53.2175 136.3242 0002094  27.3437   9.0960 15.28360701 13030,6858.849,94.219,482.151,479.278,0.0
51878.0,STARLINK-3575,PAYLOAD,2022-05-18 14:00:01,15.27849813,0.0001598,53.2172,134.7846,41.1614,30.0162,-0.02819,-0.00724764,0.0,0 STARLINK-3575,1 51878U 22022AC  22138.58334491 -.00724764  00000-0 -28190-1 0  9993,2 51878  53.2172 134.7846 0001598  41.1614  30.0162 15.27849813  1308,6860.378000000002,94.25,483.34,481.147,0.0
51878.0,STARLINK-3575,PAYLOAD,2022-05-18 22:00:00,15.27339455,0.0001694,53.2174,133.245,40.4309,64.8726,-0.028633,-0.00724752,0.0,0 STARLINK-3575,1 51878U 22022AC  22138.91667824 -.00724752  00000-0 -28633-1 0  9998,2 51878  53.2174 133.2450 0001694  40.4309  64.8726 15.27339455  1302,6861.906,94.282,484.934,482.609,0.0
51878.0,STARLINK-3575,PAYLOAD,2022-05-19 14:00:01,15.2631965,0.000181,53.2172,130.1736,41.1574,130.62,-0.029523,-0.00724445,0.0,0 STARLINK-3575,1 51878U 22022AC  22139.58335648 -.00724445  00000-0 -29523-1 0  9996,2 51878  53.2172 130.1736 0001810  41.1574 130.6200 15.26319650  1308,6864.9630000000025,94.345,488.07,485.585,0.0
51878.0,STARLINK-3575,PAYLOAD,2022-05-19 22:00:00,15.25810382,0.000177,53.2174,128.6378,44.7468,159.2538,-0.030043,-0.007258,0.0,0 STARLINK-3575,1 51878U 22022AC  22139.91667824 -.00725800  00000-0 -30043-1 0  9992,2 51878  53.2174 128.6378 0001770  44.7468 159.2538 15.25810382 13299,6866.49,94.376,489.57,487.14,0.0
51878.0,STARLINK-3575,PAYLOAD,2022-05-20 14:00:01,15.24791032,0.0001529,53.2173,125.5735,54.7725,211.9618,-0.03104,-0.00727034,0.0,0 STARLINK-3575,1 51878U 22022AC  22140.58334491 -.00727034  00000-0 -31040-1 0  9997,2 51878  53.2173 125.5735 0001529  54.7725 211.9618 15.24791032  1303,6869.55,94.439,492.465,490.365,0.0
51878.0,STARLINK-3575,PAYLOAD,2022-05-20 22:00:00,15.24278623,0.0001585999999999,53.2176,124.0414,48.8182,248.3654,-0.031304,-0.00722349,0.0,0 STARLINK-3575,1 51878U 22022AC  22140.91667824 -.00722349  00000-0 -31304-1 0  9990,2 51878  53.2176 124.0414 0001586  48.8182 248.3654 15.24278623  1308,6871.089,94.471,494.044,491.865,0.0
51878.0,STARLINK-3575,PAYLOAD,2022-05-21 06:00:00,15.23770291,0.0001821,53.2175,122.5137,37.2123,289.8049,-0.03193,-0.00725461,0.0,0 STARLINK-3575,1 51878U 22022AC  22141.25001157 -.00725461  00000-0 -31930-1 0  9992,2 51878  53.2175 122.5137 0001821  37.2123 289.8049 15.23770291 13499,6872.6169999999975,94.502,495.734,493.231,0.0
51878.0,STARLINK-3575,PAYLOAD,2022-05-21 14:00:01,15.2326092,0.0001549,53.2174,120.9842,43.6338,312.6698,-0.032482,-0.0072673,0.0,0 STARLINK-3575,1 51878U 22022AC  22141.58335648 -.00726730  00000-0 -32482-1 0  9996,2 51878  53.2174 120.9842 0001549  43.6338 312.6698 15.23260920  1304,6874.15,94.534,497.079,494.95,0.0
